start=new Date('2023-03-05T00:00:00.000Z').valueOf();
sats=[{"MEAN_ANOMALY":"264.3910","DECAY_DATE":null,"EPHEMERIS_TYPE":"0","PERIOD":"95.592","PERIAPSIS":"546.124","TLE_LINE1":"1 45674U 20035T   23063.71488542  .00028862  00000-0  19485-2 0  9994","NORAD_CAT_ID":"45674","MEAN_MOTION_DOT":"0.00028862","ELEMENT_SET_NO":"999","BSTAR":"0.00194850000000","OBJECT_ID":"2020-035T","MEAN_MOTION_DDOT":"0.0000000000000","TIME_SYSTEM":"UTC","OBJECT_TYPE":"PAYLOAD","REF_FRAME":"TEME","CENTER_NAME":"EARTH","SEMIMAJOR_AXIS":"6925.345","CLASSIFICATION_TYPE":"U","TLE_LINE2":"2 45674  53.0537 329.0926 0001569  95.7258 264.3910 15.06401062152760","REV_AT_EPOCH":"15276","INCLINATION":"53.0537","MEAN_ELEMENT_THEORY":"SGP4","OBJECT_NAME":"STARLINK-1457","EPOCH":"2023-03-04T17:09:26.100288","SITE":"AFETR","ECCENTRICITY":"0.00015690","COUNTRY_CODE":"US","GP_ID":"227504924","APOAPSIS":"548.297","LAUNCH_DATE":"2020-06-04","RA_OF_ASC_NODE":"329.0926","FILE":"3851350","MEAN_MOTION":"15.06401062","ARG_OF_PERICENTER":"95.7258","RCS_SIZE":"LARGE"},{"MEAN_MOTION_DOT":"-0.00062622","NORAD_CAT_ID":"45675","PERIAPSIS":"546.594","TLE_LINE1":"1 45675U 20035U   23063.91667824 -.00062622  00000-0 -42201-2 0  9995","PERIOD":"95.591","DECAY_DATE":null,"EPHEMERIS_TYPE":"0","MEAN_ANOMALY":"359.6457","CENTER_NAME":"EARTH","SEMIMAJOR_AXIS":"6925.287","REF_FRAME":"TEME","OBJECT_TYPE":"PAYLOAD","TIME_SYSTEM":"UTC","MEAN_MOTION_DDOT":"0.0000000000000","OBJECT_ID":"2020-035U","BSTAR":"-0.00422010000000","ELEMENT_SET_NO":"999","COUNTRY_CODE":"US","GP_ID":"227505675","EPOCH":"2023-03-04T22:00:00.999936","ECCENTRICITY":"0.00008050","SITE":"AFETR","OBJECT_NAME":"STARLINK-1458","MEAN_ELEMENT_THEORY":"SGP4","INCLINATION":"53.0534","CLASSIFICATION_TYPE":"U","REV_AT_EPOCH":"130","TLE_LINE2":"2 45675  53.0534 328.1782 0000805  75.3845 359.6457 15.06420113  1301","ARG_OF_PERICENTER":"75.3845","RCS_SIZE":"LARGE","FILE":"3851350","MEAN_MOTION":"15.06420113","RA_OF_ASC_NODE":"328.1782","LAUNCH_DATE":"2020-06-04","APOAPSIS":"547.709"},{"SEMIMAJOR_AXIS":"6925.459","CENTER_NAME":"EARTH","REF_FRAME":"TEME","OBJECT_TYPE":"PAYLOAD","TIME_SYSTEM":"UTC","MEAN_MOTION_DDOT":"0.0000000000000","OBJECT_ID":"2020-035V","BSTAR":"0.00105430000000","ELEMENT_SET_NO":"999","MEAN_MOTION_DOT":"0.00015442","NORAD_CAT_ID":"45676","TLE_LINE1":"1 45676U 20035V   23063.74070407  .00015442  00000-0  10543-2 0  9992","PERIAPSIS":"546.762","PERIOD":"95.594","DECAY_DATE":null,"EPHEMERIS_TYPE":"0","MEAN_ANOMALY":"276.8927","RCS_SIZE":"LARGE","ARG_OF_PERICENTER":"83.2155","FILE":"3851350","MEAN_MOTION":"15.06363957","RA_OF_ASC_NODE":"328.9781","LAUNCH_DATE":"2020-06-04","APOAPSIS":"547.886","GP_ID":"227506412","COUNTRY_CODE":"US","ECCENTRICITY":"0.00008120","SITE":"AFETR","EPOCH":"2023-03-04T17:46:36.831648","OBJECT_NAME":"STARLINK-1460","MEAN_ELEMENT_THEORY":"SGP4","INCLINATION":"53.0547","REV_AT_EPOCH":"15275","TLE_LINE2":"2 45676  53.0547 328.9781 0000812  83.2155 276.8927 15.06363957152753","CLASSIFICATION_TYPE":"U"},{"APOAPSIS":"547.704","LAUNCH_DATE":"2020-06-04","RA_OF_ASC_NODE":"328.9264","MEAN_MOTION":"15.06430143","FILE":"3851350","ARG_OF_PERICENTER":"96.5828","RCS_SIZE":"LARGE","CLASSIFICATION_TYPE":"U","REV_AT_EPOCH":"15279","TLE_LINE2":"2 45677  53.0539 328.9264 0000842  96.5828 263.5257 15.06430143152793","INCLINATION":"53.0539","MEAN_ELEMENT_THEORY":"SGP4","OBJECT_NAME":"STARLINK-1392","EPOCH":"2023-03-04T18:02:32.424288","SITE":"AFETR","ECCENTRICITY":"0.00008420","COUNTRY_CODE":"US","GP_ID":"227505174","ELEMENT_SET_NO":"999","BSTAR":"0.00292720000000","OBJECT_ID":"2020-035W","MEAN_MOTION_DDOT":"0.0000000000000","TIME_SYSTEM":"UTC","OBJECT_TYPE":"PAYLOAD","REF_FRAME":"TEME","CENTER_NAME":"EARTH","SEMIMAJOR_AXIS":"6925.256","MEAN_ANOMALY":"263.5257","EPHEMERIS_TYPE":"0","DECAY_DATE":null,"PERIOD":"95.590","TLE_LINE1":"1 45677U 20035W   23063.75176417  .00043625  00000-0  29272-2 0  9995","PERIAPSIS":"546.538","NORAD_CAT_ID":"45677","MEAN_MOTION_DOT":"0.00043625"},{"LAUNCH_DATE":"2020-06-04","APOAPSIS":"548.390","ARG_OF_PERICENTER":"109.7809","RCS_SIZE":"LARGE","FILE":"3851350","MEAN_MOTION":"15.06394923","RA_OF_ASC_NODE":"318.9538","MEAN_ELEMENT_THEORY":"SGP4","INCLINATION":"53.0542","CLASSIFICATION_TYPE":"U","REV_AT_EPOCH":"15291","TLE_LINE2":"2 45678  53.0542 318.9538 0001676 109.7809 250.3361 15.06394923152912","COUNTRY_CODE":"US","GP_ID":"227505423","EPOCH":"2023-03-04T17:53:13.322976","SITE":"AFETR","ECCENTRICITY":"0.00016760","OBJECT_NAME":"STARLINK-1393","MEAN_MOTION_DDOT":"0.0000000000000","OBJECT_ID":"2020-035X","BSTAR":"0.00039241000000","ELEMENT_SET_NO":"999","CENTER_NAME":"EARTH","SEMIMAJOR_AXIS":"6925.364","REF_FRAME":"TEME","OBJECT_TYPE":"PAYLOAD","TIME_SYSTEM":"UTC","DECAY_DATE":null,"EPHEMERIS_TYPE":"0","PERIOD":"95.592","MEAN_ANOMALY":"250.3361","MEAN_MOTION_DOT":"0.00005567","NORAD_CAT_ID":"45678","TLE_LINE1":"1 45678U 20035X   23063.74529309  .00005567  00000-0  39241-3 0  9998","PERIAPSIS":"546.068"},{"OBJECT_TYPE":"PAYLOAD","TIME_SYSTEM":"UTC","SEMIMAJOR_AXIS":"6925.192","CENTER_NAME":"EARTH","REF_FRAME":"TEME","BSTAR":"0.00138950000000","ELEMENT_SET_NO":"999","MEAN_MOTION_DDOT":"0.0000000000000","OBJECT_ID":"2020-035Y","NORAD_CAT_ID":"45679","TLE_LINE1":"1 45679U 20035Y   23063.15184329  .00020504  00000-0  13895-2 0  9997","PERIAPSIS":"546.415","MEAN_MOTION_DOT":"0.00020504","DECAY_DATE":null,"EPHEMERIS_TYPE":"0","PERIOD":"95.589","MEAN_ANOMALY":"240.3047","RA_OF_ASC_NODE":"321.6133","RCS_SIZE":"LARGE","ARG_OF_PERICENTER":"119.8034","FILE":"3851072","MEAN_MOTION":"15.06451157","LAUNCH_DATE":"2020-06-04","APOAPSIS":"547.699","OBJECT_NAME":"STARLINK-1394","GP_ID":"227472406","COUNTRY_CODE":"US","SITE":"AFETR","ECCENTRICITY":"0.00009270","EPOCH":"2023-03-04T03:38:39.260256","INCLINATION":"53.0548","TLE_LINE2":"2 45679  53.0548 321.6133 0000927 119.8034 240.3047 15.06451157152846","REV_AT_EPOCH":"15284","CLASSIFICATION_TYPE":"U","MEAN_ELEMENT_THEORY":"SGP4"},{"LAUNCH_DATE":"2020-06-04","APOAPSIS":"547.896","RA_OF_ASC_NODE":"322.1840","RCS_SIZE":"LARGE","ARG_OF_PERICENTER":"122.6928","FILE":"3851072","MEAN_MOTION":"15.06427369","INCLINATION":"53.0539","TLE_LINE2":"2 45680  53.0539 322.1840 0001106 122.6928 237.4167 15.06427369152818","REV_AT_EPOCH":"15281","CLASSIFICATION_TYPE":"U","MEAN_ELEMENT_THEORY":"SGP4","OBJECT_NAME":"STARLINK-1395","GP_ID":"227472645","COUNTRY_CODE":"US","ECCENTRICITY":"0.00011060","SITE":"AFETR","EPOCH":"2023-03-04T00:38:12.357024","BSTAR":"0.00147120000000","ELEMENT_SET_NO":"999","MEAN_MOTION_DDOT":"0.0000000000000","OBJECT_ID":"2020-035Z","OBJECT_TYPE":"PAYLOAD","TIME_SYSTEM":"UTC","SEMIMAJOR_AXIS":"6925.265","CENTER_NAME":"EARTH","REF_FRAME":"TEME","DECAY_DATE":null,"EPHEMERIS_TYPE":"0","PERIOD":"95.590","MEAN_ANOMALY":"237.4167","NORAD_CAT_ID":"45680","PERIAPSIS":"546.364","TLE_LINE1":"1 45680U 20035Z   23063.02653191  .00021716  00000-0  14712-2 0  9998","MEAN_MOTION_DOT":"0.00021716"},{"BSTAR":"0.00104780000000","ELEMENT_SET_NO":"999","MEAN_MOTION_DDOT":"0.0000000000000","OBJECT_ID":"2020-035AA","OBJECT_TYPE":"PAYLOAD","TIME_SYSTEM":"UTC","CENTER_NAME":"EARTH","SEMIMAJOR_AXIS":"6925.235","REF_FRAME":"TEME","PERIOD":"95.590","DECAY_DATE":null,"EPHEMERIS_TYPE":"0","MEAN_ANOMALY":"246.3977","NORAD_CAT_ID":"45681","TLE_LINE1":"1 45681U 20035AA  23063.15553586  .00015375  00000-0  10478-2 0  9999","PERIAPSIS":"546.421","MEAN_MOTION_DOT":"0.00015375","LAUNCH_DATE":"2020-06-04","APOAPSIS":"547.779","RA_OF_ASC_NODE":"321.6031","ARG_OF_PERICENTER":"113.7115","RCS_SIZE":"LARGE","MEAN_MOTION":"15.06437031","FILE":"3851072","INCLINATION":"53.0532","CLASSIFICATION_TYPE":"U","REV_AT_EPOCH":"15284","TLE_LINE2":"2 45681  53.0532 321.6031 0000981 113.7115 246.3977 15.06437031152845","MEAN_ELEMENT_THEORY":"SGP4","OBJECT_NAME":"STARLINK-1396","COUNTRY_CODE":"US","GP_ID":"227471906","EPOCH":"2023-03-04T03:43:58.298304","ECCENTRICITY":"0.00009810","SITE":"AFETR"},{"MEAN_ANOMALY":"296.9214","EPHEMERIS_TYPE":"0","DECAY_DATE":null,"PERIOD":"95.589","TLE_LINE1":"1 45682U 20035AB  23063.22925975  .00016336  00000-0  11114-2 0  9999","PERIAPSIS":"545.281","NORAD_CAT_ID":"45682","MEAN_MOTION_DOT":"0.00016336","ELEMENT_SET_NO":"999","BSTAR":"0.00111140000000","OBJECT_ID":"2020-035AB","MEAN_MOTION_DDOT":"0.0000000000000","TIME_SYSTEM":"UTC","OBJECT_TYPE":"PAYLOAD","REF_FRAME":"TEME","SEMIMAJOR_AXIS":"6925.181","CENTER_NAME":"EARTH","REV_AT_EPOCH":"15284","TLE_LINE2":"2 45682  53.0532 321.2723 0002549  63.2036 296.9214 15.06454734152847","CLASSIFICATION_TYPE":"U","INCLINATION":"53.0532","MEAN_ELEMENT_THEORY":"SGP4","OBJECT_NAME":"STARLINK-1397","SITE":"AFETR","ECCENTRICITY":"0.00025490","EPOCH":"2023-03-04T05:30:08.042400","GP_ID":"227472155","COUNTRY_CODE":"US","APOAPSIS":"548.811","LAUNCH_DATE":"2020-06-04","RA_OF_ASC_NODE":"321.2723","FILE":"3851072","MEAN_MOTION":"15.06454734","RCS_SIZE":"LARGE","ARG_OF_PERICENTER":"63.2036"},{"MEAN_MOTION_DOT":"0.00020913","NORAD_CAT_ID":"45683","PERIAPSIS":"546.745","TLE_LINE1":"1 45683U 20035AC  23063.74160797  .00020913  00000-0  14187-2 0  9999","DECAY_DATE":null,"PERIOD":"95.592","EPHEMERIS_TYPE":"0","MEAN_ANOMALY":"302.9607","SEMIMAJOR_AXIS":"6925.347","CENTER_NAME":"EARTH","REF_FRAME":"TEME","OBJECT_TYPE":"PAYLOAD","TIME_SYSTEM":"UTC","MEAN_MOTION_DDOT":"0.0000000000000","OBJECT_ID":"2020-035AC","BSTAR":"0.00141870000000","ELEMENT_SET_NO":"999","GP_ID":"227505676","COUNTRY_CODE":"US","ECCENTRICITY":"0.00006740","SITE":"AFETR","EPOCH":"2023-03-04T17:47:54.928608","OBJECT_NAME":"STARLINK-1399","MEAN_ELEMENT_THEORY":"SGP4","INCLINATION":"53.0546","TLE_LINE2":"2 45683  53.0546 318.9695 0000674  57.1447 302.9607 15.06400587152930","REV_AT_EPOCH":"15293","CLASSIFICATION_TYPE":"U","RCS_SIZE":"LARGE","ARG_OF_PERICENTER":"57.1447","FILE":"3851350","MEAN_MOTION":"15.06400587","RA_OF_ASC_NODE":"318.9695","LAUNCH_DATE":"2020-06-04","APOAPSIS":"547.679"}];
